{
"type": "FeatureCollection",
"name": "history_longsor",
"crs": { "type": "name", "properties": { "name": "urn:ogc:def:crs:OGC:1.3:CRS84" } },
"features": [
{ "type": "Feature", "properties": { "\"id": "\"1", "nama_lokasi": "Sedayu Jalur Barat", "kabupaten": "Tanggamus", "latitude": -5.4352, "longitude": 104.5421, "tingkat_kerawanan": "Sangat Tinggi", "estimasi_luas_ha": 12.5, "jenis_material\"": "Campuran Lumpur\"" }, "geometry": { "type": "Point", "coordinates": [ 104.5421, -5.4352 ] } },
{ "type": "Feature", "properties": { "\"id": "\"2", "nama_lokasi": "Sukaraja Atas", "kabupaten": "Tanggamus", "latitude": -5.412, "longitude": 104.515, "tingkat_kerawanan": "Tinggi", "estimasi_luas_ha": 8.4, "jenis_material\"": "Tanah Gembur\"" }, "geometry": { "type": "Point", "coordinates": [ 104.515, -5.412 ] } },
{ "type": "Feature", "properties": { "\"id": "\"3", "nama_lokasi": "Kelumbayan Barat Lereng", "kabupaten": "Tanggamus", "latitude": -5.6021, "longitude": 104.8854, "tingkat_kerawanan": "Sedang", "estimasi_luas_ha": 4.2, "jenis_material\"": "Tanah dan Batuan\"" }, "geometry": { "type": "Point", "coordinates": [ 104.8854, -5.6021 ] } },
{ "type": "Feature", "properties": { "\"id": "\"4", "nama_lokasi": "Gisting Permai Kompleks", "kabupaten": "Tanggamus", "latitude": -5.3625, "longitude": 104.7088, "tingkat_kerawanan": "Sedang", "estimasi_luas_ha": 2.1, "jenis_material\"": "Tanah Gembur\"" }, "geometry": { "type": "Point", "coordinates": [ 104.7088, -5.3625 ] } },
{ "type": "Feature", "properties": { "\"id": "\"5", "nama_lokasi": "Kota Agung Utara Tebing", "kabupaten": "Tanggamus", "latitude": -5.4782, "longitude": 104.6215, "tingkat_kerawanan": "Tinggi", "estimasi_luas_ha": 6.8, "jenis_material\"": "Batuan Lepas\"" }, "geometry": { "type": "Point", "coordinates": [ 104.6215, -5.4782 ] } },
{ "type": "Feature", "properties": { "\"id": "\"6", "nama_lokasi": "Jalur Liwa-Krui KM 15", "kabupaten": "Lampung Barat", "latitude": -5.1523, "longitude": 104.1245, "tingkat_kerawanan": "Sangat Tinggi", "estimasi_luas_ha": 18.3, "jenis_material\"": "Campuran Lumpur\"" }, "geometry": { "type": "Point", "coordinates": [ 104.1245, -5.1523 ] } },
{ "type": "Feature", "properties": { "\"id": "\"7", "nama_lokasi": "Jalur Liwa-Krui KM 24", "kabupaten": "Lampung Barat", "latitude": -5.1845, "longitude": 104.0892, "tingkat_kerawanan": "Sangat Tinggi", "estimasi_luas_ha": 15.1, "jenis_material\"": "Tanah dan Batuan\"" }, "geometry": { "type": "Point", "coordinates": [ 104.0892, -5.1845 ] } },
{ "type": "Feature", "properties": { "\"id": "\"8", "nama_lokasi": "Balik Bukit Lereng", "kabupaten": "Lampung Barat", "latitude": -5.0354, "longitude": 104.0621, "tingkat_kerawanan": "Tinggi", "estimasi_luas_ha": 9.5, "jenis_material\"": "Tanah Gembur\"" }, "geometry": { "type": "Point", "coordinates": [ 104.0621, -5.0354 ] } },
{ "type": "Feature", "properties": { "\"id": "\"9", "nama_lokasi": "Sekincau Perkebunan", "kabupaten": "Lampung Barat", "latitude": -5.1214, "longitude": 104.3154, "tingkat_kerawanan": "Tinggi", "estimasi_luas_ha": 11.2, "jenis_material\"": "Tanah Gembur\"" }, "geometry": { "type": "Point", "coordinates": [ 104.3154, -5.1214 ] } },
{ "type": "Feature", "properties": { "\"id": "\"10", "nama_lokasi": "Belalau Kawasan Hutan", "kabupaten": "Lampung Barat", "latitude": -5.0562, "longitude": 104.1845, "tingkat_kerawanan": "Sedang", "estimasi_luas_ha": 5.4, "jenis_material\"": "Tanah Gembur\"" }, "geometry": { "type": "Point", "coordinates": [ 104.1845, -5.0562 ] } },
{ "type": "Feature", "properties": { "\"id": "\"11", "nama_lokasi": "Lemong Tebing Pantai", "kabupaten": "Pesisir Barat", "latitude": -4.9214, "longitude": 103.7421, "tingkat_kerawanan": "Tinggi", "estimasi_luas_ha": 7.9, "jenis_material\"": "Batuan Lepas\"" }, "geometry": { "type": "Point", "coordinates": [ 103.7421, -4.9214 ] } },
{ "type": "Feature", "properties": { "\"id": "\"12", "nama_lokasi": "Pesisir Tengah Lereng", "kabupaten": "Pesisir Barat", "latitude": -5.1894, "longitude": 103.9215, "tingkat_kerawanan": "Sedang", "estimasi_luas_ha": 3.6, "jenis_material\"": "Tanah Gembur\"" }, "geometry": { "type": "Point", "coordinates": [ 103.9215, -5.1894 ] } },
{ "type": "Feature", "properties": { "\"id": "\"13", "nama_lokasi": "Way Ratai Perbukitan", "kabupaten": "Pesawaran", "latitude": -5.5421, "longitude": 105.1245, "tingkat_kerawanan": "Tinggi", "estimasi_luas_ha": 10.2, "jenis_material\"": "Campuran Lumpur\"" }, "geometry": { "type": "Point", "coordinates": [ 105.1245, -5.5421 ] } },
{ "type": "Feature", "properties": { "\"id": "\"14", "nama_lokasi": "Padang Cermin Akses", "kabupaten": "Pesawaran", "latitude": -5.5842, "longitude": 105.1562, "tingkat_kerawanan": "Tinggi", "estimasi_luas_ha": 8.7, "jenis_material\"": "Campuran Lumpur\"" }, "geometry": { "type": "Point", "coordinates": [ 105.1562, -5.5842 ] } },
{ "type": "Feature", "properties": { "\"id": "\"15", "nama_lokasi": "Gedong Tataan Lereng", "kabupaten": "Pesawaran", "latitude": -5.3845, "longitude": 105.0821, "tingkat_kerawanan": "Sedang", "estimasi_luas_ha": 2.5, "jenis_material\"": "Tanah Gembur\"" }, "geometry": { "type": "Point", "coordinates": [ 105.0821, -5.3845 ] } },
{ "type": "Feature", "properties": { "\"id": "\"16", "nama_lokasi": "Kemiling Permai Bukit", "kabupaten": "Bandar Lampung", "latitude": -5.3942, "longitude": 105.2014, "tingkat_kerawanan": "Sedang", "estimasi_luas_ha": 1.8, "jenis_material\"": "Tanah Gembur\"" }, "geometry": { "type": "Point", "coordinates": [ 105.2014, -5.3942 ] } },
{ "type": "Feature", "properties": { "\"id": "\"17", "nama_lokasi": "Sukamenanti Pemukiman", "kabupaten": "Bandar Lampung", "latitude": -5.3912, "longitude": 105.2425, "tingkat_kerawanan": "Tinggi", "estimasi_luas_ha": 3.1, "jenis_material\"": "Tanah dan Batuan\"" }, "geometry": { "type": "Point", "coordinates": [ 105.2425, -5.3912 ] } },
{ "type": "Feature", "properties": { "\"id": "\"18", "nama_lokasi": "Panjang Kompleks Batu", "kabupaten": "Bandar Lampung", "latitude": -5.4521, "longitude": 105.3214, "tingkat_kerawanan": "Tinggi", "estimasi_luas_ha": 4.5, "jenis_material\"": "Batuan Lepas\"" }, "geometry": { "type": "Point", "coordinates": [ 105.3214, -5.4521 ] } },
{ "type": "Feature", "properties": { "\"id": "\"19", "nama_lokasi": "Bukit Camang Tambang", "kabupaten": "Bandar Lampung", "latitude": -5.4314, "longitude": 105.2754, "tingkat_kerawanan": "Tinggi", "estimasi_luas_ha": 5.2, "jenis_material\"": "Batuan Lepas\"" }, "geometry": { "type": "Point", "coordinates": [ 105.2754, -5.4314 ] } },
{ "type": "Feature", "properties": { "\"id": "\"20", "nama_lokasi": "Rajabasa Lereng Gunung", "kabupaten": "Lampung Selatan", "latitude": -5.7821, "longitude": 105.6214, "tingkat_kerawanan": "Tinggi", "estimasi_luas_ha": 14.2, "jenis_material\"": "Campuran Lumpur\"" }, "geometry": { "type": "Point", "coordinates": [ 105.6214, -5.7821 ] } },
{ "type": "Feature", "properties": { "\"id": "\"21", "nama_lokasi": "Bakauheni Tebing Tol", "kabupaten": "Lampung Selatan", "latitude": -5.8452, "longitude": 105.7421, "tingkat_kerawanan": "Sedang", "estimasi_luas_ha": 6.1, "jenis_material\"": "Tanah dan Batuan\"" }, "geometry": { "type": "Point", "coordinates": [ 105.7421, -5.8452 ] } },
{ "type": "Feature", "properties": { "\"id": "\"22", "nama_lokasi": "Kalianda Lereng Pesisir", "kabupaten": "Lampung Selatan", "latitude": -5.7214, "longitude": 105.5845, "tingkat_kerawanan": "Sedang", "estimasi_luas_ha": 4.8, "jenis_material\"": "Tanah Gembur\"" }, "geometry": { "type": "Point", "coordinates": [ 105.5845, -5.7214 ] } },
{ "type": "Feature", "properties": { "\"id": "\"23", "nama_lokasi": "Suoh Lembah Gempa", "kabupaten": "Lampung Barat", "latitude": -5.2542, "longitude": 104.2842, "tingkat_kerawanan": "Sangat Tinggi", "estimasi_luas_ha": 22.4, "jenis_material\"": "Campuran Lumpur\"" }, "geometry": { "type": "Point", "coordinates": [ 104.2842, -5.2542 ] } },
{ "type": "Feature", "properties": { "\"id": "\"24", "nama_lokasi": "Pugung Sukameanti", "kabupaten": "Tanggamus", "latitude": -5.4012, "longitude": 104.7854, "tingkat_kerawanan": "Sedang", "estimasi_luas_ha": 3.9, "jenis_material\"": "Tanah Gembur\"" }, "geometry": { "type": "Point", "coordinates": [ 104.7854, -5.4012 ] } },
{ "type": "Feature", "properties": { "\"id": "\"25", "nama_lokasi": "Pematang Sawa Tebing", "kabupaten": "Tanggamus", "latitude": -5.6842, "longitude": 104.5214, "tingkat_kerawanan": "Tinggi", "estimasi_luas_ha": 9.1, "jenis_material\"": "Tanah dan Batuan\"" }, "geometry": { "type": "Point", "coordinates": [ 104.5214, -5.6842 ] } },
{ "type": "Feature", "properties": { "\"id": "\"26", "nama_lokasi": "Cukuh Balak Lereng", "kabupaten": "Tanggamus", "latitude": -5.6542, "longitude": 104.9214, "tingkat_kerawanan": "Tinggi", "estimasi_luas_ha": 8.3, "jenis_material\"": "Campuran Lumpur\"" }, "geometry": { "type": "Point", "coordinates": [ 104.9214, -5.6542 ] } },
{ "type": "Feature", "properties": { "\"id": "\"27", "nama_lokasi": "Air Naningan Hutan", "kabupaten": "Tanggamus", "latitude": -5.2842, "longitude": 104.6854, "tingkat_kerawanan": "Tinggi", "estimasi_luas_ha": 11.5, "jenis_material\"": "Tanah Gembur\"" }, "geometry": { "type": "Point", "coordinates": [ 104.6854, -5.2842 ] } },
{ "type": "Feature", "properties": { "\"id": "\"28", "nama_lokasi": "Pulau Panggung Lereng", "kabupaten": "Tanggamus", "latitude": -5.3214, "longitude": 104.6214, "tingkat_kerawanan": "Sedang", "estimasi_luas_ha": 5.0, "jenis_material\"": "Tanah Gembur\"" }, "geometry": { "type": "Point", "coordinates": [ 104.6214, -5.3214 ] } },
{ "type": "Feature", "properties": { "\"id": "\"29", "nama_lokasi": "Ulu Belu Geothermal", "kabupaten": "Tanggamus", "latitude": -5.2514, "longitude": 104.5842, "tingkat_kerawanan": "Tinggi", "estimasi_luas_ha": 13.2, "jenis_material\"": "Campuran Lumpur\"" }, "geometry": { "type": "Point", "coordinates": [ 104.5842, -5.2514 ] } },
{ "type": "Feature", "properties": { "\"id": "\"30", "nama_lokasi": "Batu Brak Lereng", "kabupaten": "Lampung Barat", "latitude": -5.0842, "longitude": 104.1124, "tingkat_kerawanan": "Tinggi", "estimasi_luas_ha": 7.4, "jenis_material\"": "Tanah Gembur\"" }, "geometry": { "type": "Point", "coordinates": [ 104.1124, -5.0842 ] } },
{ "type": "Feature", "properties": { "\"id": "\"31", "nama_lokasi": "Sumber Jaya Jalur", "kabupaten": "Lampung Barat", "latitude": -4.9842, "longitude": 104.4854, "tingkat_kerawanan": "Sangat Tinggi", "estimasi_luas_ha": 16.8, "jenis_material\"": "Campuran Lumpur\"" }, "geometry": { "type": "Point", "coordinates": [ 104.4854, -4.9842 ] } },
{ "type": "Feature", "properties": { "\"id": "\"32", "nama_lokasi": "Way Tenong Perkebunan", "kabupaten": "Lampung Barat", "latitude": -5.0124, "longitude": 104.4124, "tingkat_kerawanan": "Tinggi", "estimasi_luas_ha": 10.5, "jenis_material\"": "Tanah Gembur\"" }, "geometry": { "type": "Point", "coordinates": [ 104.4124, -5.0124 ] } },
{ "type": "Feature", "properties": { "\"id": "\"33", "nama_lokasi": "Gedung Surian Lereng", "kabupaten": "Lampung Barat", "latitude": -5.0854, "longitude": 104.5124, "tingkat_kerawanan": "Sedang", "estimasi_luas_ha": 4.1, "jenis_material\"": "Tanah Gembur\"" }, "geometry": { "type": "Point", "coordinates": [ 104.5124, -5.0854 ] } },
{ "type": "Feature", "properties": { "\"id": "\"34", "nama_lokasi": "Kebun Tebu Kawasan", "kabupaten": "Lampung Barat", "latitude": -5.0314, "longitude": 104.5421, "tingkat_kerawanan": "Sedang", "estimasi_luas_ha": 5.3, "jenis_material\"": "Tanah Gembur\"" }, "geometry": { "type": "Point", "coordinates": [ 104.5421, -5.0314 ] } },
{ "type": "Feature", "properties": { "\"id": "\"35", "nama_lokasi": "Pesisir Utara Tebing", "kabupaten": "Pesisir Barat", "latitude": -5.0214, "longitude": 103.8214, "tingkat_kerawanan": "Tinggi", "estimasi_luas_ha": 8.9, "jenis_material\"": "Tanah dan Batuan\"" }, "geometry": { "type": "Point", "coordinates": [ 103.8214, -5.0214 ] } },
{ "type": "Feature", "properties": { "\"id": "\"36", "nama_lokasi": "Karya Penggawa Lereng", "kabupaten": "Pesisir Barat", "latitude": -5.1124, "longitude": 103.8842, "tingkat_kerawanan": "Sedang", "estimasi_luas_ha": 3.8, "jenis_material\"": "Tanah Gembur\"" }, "geometry": { "type": "Point", "coordinates": [ 103.8842, -5.1124 ] } },
{ "type": "Feature", "properties": { "\"id": "\"37", "nama_lokasi": "Ngambur Jalur Pantai", "kabupaten": "Pesisir Barat", "latitude": -5.4214, "longitude": 104.0214, "tingkat_kerawanan": "Sedang", "estimasi_luas_ha": 2.9, "jenis_material\"": "Tanah Gembur\"" }, "geometry": { "type": "Point", "coordinates": [ 104.0214, -5.4214 ] } },
{ "type": "Feature", "properties": { "\"id": "\"38", "nama_lokasi": "Bengkunat Belimbing", "kabupaten": "Pesisir Barat", "latitude": -5.6124, "longitude": 104.2842, "tingkat_kerawanan": "Tinggi", "estimasi_luas_ha": 12.1, "jenis_material\"": "Campuran Lumpur\"" }, "geometry": { "type": "Point", "coordinates": [ 104.2842, -5.6124 ] } },
{ "type": "Feature", "properties": { "\"id": "\"39", "nama_lokasi": "Kedondong Perbukitan", "kabupaten": "Pesawaran", "latitude": -5.4842, "longitude": 105.0214, "tingkat_kerawanan": "Sedang", "estimasi_luas_ha": 6.4, "jenis_material\"": "Tanah Gembur\"" }, "geometry": { "type": "Point", "coordinates": [ 105.0214, -5.4842 ] } },
{ "type": "Feature", "properties": { "\"id": "\"40", "nama_lokasi": "Marga Punduh Lereng", "kabupaten": "Pesawaran", "latitude": -5.6214, "longitude": 105.1842, "tingkat_kerawanan": "Tinggi", "estimasi_luas_ha": 7.8, "jenis_material\"": "Tanah dan Batuan\"" }, "geometry": { "type": "Point", "coordinates": [ 105.1842, -5.6214 ] } },
{ "type": "Feature", "properties": { "\"id": "\"41", "nama_lokasi": "Punduh Pidada Tebing", "kabupaten": "Pesawaran", "latitude": -5.6842, "longitude": 105.1214, "tingkat_kerawanan": "Tinggi", "estimasi_luas_ha": 9.3, "jenis_material\"": "Campuran Lumpur\"" }, "geometry": { "type": "Point", "coordinates": [ 105.1214, -5.6842 ] } },
{ "type": "Feature", "properties": { "\"id": "\"42", "nama_lokasi": "Teluk Betung Barat Bukit", "kabupaten": "Bandar Lampung", "latitude": -5.4412, "longitude": 105.2124, "tingkat_kerawanan": "Sedang", "estimasi_luas_ha": 3.4, "jenis_material\"": "Tanah Gembur\"" }, "geometry": { "type": "Point", "coordinates": [ 105.2124, -5.4412 ] } },
{ "type": "Feature", "properties": { "\"id": "\"43", "nama_lokasi": "Batu Putuk Lereng", "kabupaten": "Bandar Lampung", "latitude": -5.4242, "longitude": 105.1942, "tingkat_kerawanan": "Tinggi", "estimasi_luas_ha": 5.8, "jenis_material\"": "Tanah dan Batuan\"" }, "geometry": { "type": "Point", "coordinates": [ 105.1942, -5.4242 ] } },
{ "type": "Feature", "properties": { "\"id": "\"44", "nama_lokasi": "Merbau Mataram Lereng", "kabupaten": "Lampung Selatan", "latitude": -5.4842, "longitude": 105.4124, "tingkat_kerawanan": "Sedang", "estimasi_luas_ha": 4.7, "jenis_material\"": "Tanah Gembur\"" }, "geometry": { "type": "Point", "coordinates": [ 105.4124, -5.4842 ] } },
{ "type": "Feature", "properties": { "\"id": "\"45", "nama_lokasi": "Katibung Perbukitan", "kabupaten": "Lampung Selatan", "latitude": -5.5214, "longitude": 105.4842, "tingkat_kerawanan": "Tinggi", "estimasi_luas_ha": 8.1, "jenis_material\"": "Tanah dan Batuan\"" }, "geometry": { "type": "Point", "coordinates": [ 105.4842, -5.5214 ] } },
{ "type": "Feature", "properties": { "\"id": "\"46", "nama_lokasi": "Sidomulyo Tebing", "kabupaten": "Lampung Selatan", "latitude": -5.6124, "longitude": 105.5421, "tingkat_kerawanan": "Sedang", "estimasi_luas_ha": 3.3, "jenis_material\"": "Tanah Gembur\"" }, "geometry": { "type": "Point", "coordinates": [ 105.5421, -5.6124 ] } },
{ "type": "Feature", "properties": { "\"id": "\"47", "nama_lokasi": "Penengahan Lereng", "kabupaten": "Lampung Selatan", "latitude": -5.7242, "longitude": 105.6842, "tingkat_kerawanan": "Tinggi", "estimasi_luas_ha": 11.3, "jenis_material\"": "Campuran Lumpur\"" }, "geometry": { "type": "Point", "coordinates": [ 105.6842, -5.7242 ] } },
{ "type": "Feature", "properties": { "\"id": "\"48", "nama_lokasi": "Abung Barat Bukit", "kabupaten": "Lampung Utara", "latitude": -4.8214, "longitude": 104.6842, "tingkat_kerawanan": "Sedang", "estimasi_luas_ha": 5.1, "jenis_material\"": "Tanah Gembur\"" }, "geometry": { "type": "Point", "coordinates": [ 104.6842, -4.8214 ] } },
{ "type": "Feature", "properties": { "\"id": "\"49", "nama_lokasi": "Tanjung Raja Lereng", "kabupaten": "Lampung Utara", "latitude": -4.8842, "longitude": 104.6124, "tingkat_kerawanan": "Tinggi", "estimasi_luas_ha": 7.6, "jenis_material\"": "Tanah Gembur\"" }, "geometry": { "type": "Point", "coordinates": [ 104.6124, -4.8842 ] } },
{ "type": "Feature", "properties": { "\"id": "\"50", "nama_lokasi": "Kasui Perbukitan", "kabupaten": "Way Kanan", "latitude": -4.5842, "longitude": 104.3842, "tingkat_kerawanan": "Tinggi", "estimasi_luas_ha": 9.8, "jenis_material\"": "Tanah dan Batuan\"" }, "geometry": { "type": "Point", "coordinates": [ 104.3842, -4.5842 ] } }
]
}
