{
"type": "FeatureCollection",
"name": "rawan_longsor",
"crs": { "type": "name", "properties": { "name": "urn:ogc:def:crs:OGC:1.3:CRS84" } },
"features": [
{ "type": "Feature", "properties": { "\"id": "\"1", "nama_lokasi": "Sedayu Kawasan Barat", "kabupaten": "Tanggamus", "latitude": -5.4352, "longitude": 104.5421, "kemiringan_lereng": "42 (Sangat Curam)", "jenis_tanah_geologi": "Tanah Vulkanis Gembur (Andosol)", "penggunaan_lahan": "Perkebunan Semusim Terbuka", "kondisi_hidrologi": "Banyak Mata Air & Drainase Buruk", "skor_kerawanan_awal\"": "Sangat Tinggi\"" }, "geometry": { "type": "Point", "coordinates": [ 104.5421, -5.4352 ] } },
{ "type": "Feature", "properties": { "\"id": "\"2", "nama_lokasi": "Sukaraja Lereng Atas", "kabupaten": "Tanggamus", "latitude": -5.412, "longitude": 104.515, "kemiringan_lereng": "35 (Curam)", "jenis_tanah_geologi": "Tanah Vulkanis (Andosol)", "penggunaan_lahan": "Pertanian Sayuran Lereng", "kondisi_hidrologi": "Dekat Aliran Sungai Kecil", "skor_kerawanan_awal\"": "Tinggi\"" }, "geometry": { "type": "Point", "coordinates": [ 104.515, -5.412 ] } },
{ "type": "Feature", "properties": { "\"id": "\"3", "nama_lokasi": "Kelumbayan Bukit", "kabupaten": "Tanggamus", "latitude": -5.6021, "longitude": 104.8854, "kemiringan_lereng": "28 (Curam)", "jenis_tanah_geologi": "Lempung Berpasir (Regosol)", "penggunaan_lahan": "Semak Belukar / Bekas Tebangan", "kondisi_hidrologi": "Drainase Alami Cukup Baik", "skor_kerawanan_awal\"": "Sedang\"" }, "geometry": { "type": "Point", "coordinates": [ 104.8854, -5.6021 ] } },
{ "type": "Feature", "properties": { "\"id": "\"4", "nama_lokasi": "Gisting Permai Lereng", "kabupaten": "Tanggamus", "latitude": -5.3625, "longitude": 104.7088, "kemiringan_lereng": "22 (Agak Curam)", "jenis_tanah_geologi": "Tanah Kompleks Vulkanis", "penggunaan_lahan": "Pemukiman Lereng Padat", "kondisi_hidrologi": "Saluran Air Rumah Tangga Minim", "skor_kerawanan_awal\"": "Sedang\"" }, "geometry": { "type": "Point", "coordinates": [ 104.7088, -5.3625 ] } },
{ "type": "Feature", "properties": { "\"id": "\"5", "nama_lokasi": "Jalur Liwa-Krui KM 15", "kabupaten": "Lampung Barat", "latitude": -5.1523, "longitude": 104.1245, "kemiringan_lereng": "45 (Sangat Curam)", "jenis_tanah_geologi": "Lempung Ekspansif di Atas Bedrock", "penggunaan_lahan": "Tebing Jalan Terbuka (Gundul)", "kondisi_hidrologi": "Rembesan Air Tebing Aktif", "skor_kerawanan_awal\"": "Sangat Tinggi\"" }, "geometry": { "type": "Point", "coordinates": [ 104.1245, -5.1523 ] } },
{ "type": "Feature", "properties": { "\"id": "\"6", "nama_lokasi": "Jalur Liwa-Krui KM 24", "kabupaten": "Lampung Barat", "latitude": -5.1845, "longitude": 104.0892, "kemiringan_lereng": "38 (Curam)", "jenis_tanah_geologi": "Tanah Pelapukan Batuan Vulkanik", "penggunaan_lahan": "Hutan Taman Nasional Sebagian Rusak", "kondisi_hidrologi": "Aliran Air Permukaan Tinggi", "skor_kerawanan_awal\"": "Sangat Tinggi\"" }, "geometry": { "type": "Point", "coordinates": [ 104.0892, -5.1845 ] } },
{ "type": "Feature", "properties": { "\"id": "\"7", "nama_lokasi": "Balik Bukit Kota", "kabupaten": "Lampung Barat", "latitude": -5.0354, "longitude": 104.0621, "kemiringan_lereng": "25 (Curam)", "jenis_tanah_geologi": "Tanah Andosol Tebal", "penggunaan_lahan": "Perkebunan Kopi Rapat", "kondisi_hidrologi": "Sistem Drainase Kota Kurang", "skor_kerawanan_awal\"": "Tinggi\"" }, "geometry": { "type": "Point", "coordinates": [ 104.0621, -5.0354 ] } },
{ "type": "Feature", "properties": { "\"id": "\"8", "nama_lokasi": "Sekincau Lereng Kebun", "kabupaten": "Lampung Barat", "latitude": -5.1214, "longitude": 104.3154, "kemiringan_lereng": "32 (Curam)", "jenis_tanah_geologi": "Tanah Andosol Gembur", "penggunaan_lahan": "Perkebunan Sayur Hortikultura", "kondisi_hidrologi": "Resapan Air Tinggi Jenuh", "skor_kerawanan_awal\"": "Tinggi\"" }, "geometry": { "type": "Point", "coordinates": [ 104.3154, -5.1214 ] } },
{ "type": "Feature", "properties": { "\"id": "\"9", "nama_lokasi": "Lemong Tebing Jalan", "kabupaten": "Pesisir Barat", "latitude": -4.9214, "longitude": 103.7421, "kemiringan_lereng": "40 (Sangat Curam)", "jenis_tanah_geologi": "Batuan Sedimen Lapuk (Latosol)", "penggunaan_lahan": "Semak Liar & Potongan Tebing", "kondisi_hidrologi": "Banyak Aliran Sesar Kecil", "skor_kerawanan_awal\"": "Tinggi\"" }, "geometry": { "type": "Point", "coordinates": [ 103.7421, -4.9214 ] } },
{ "type": "Feature", "properties": { "\"id": "\"10", "nama_lokasi": "Suoh Area Sesar", "kabupaten": "Lampung Barat", "latitude": -5.2542, "longitude": 104.2842, "kemiringan_lereng": "30 (Curam)", "jenis_tanah_geologi": "Tanah Vulkanik Aktif & Lempung", "penggunaan_lahan": "Perkebunan Campuran & Rekahan", "kondisi_hidrologi": "Dekat Danau/Sumber Air Panas", "skor_kerawanan_awal\"": "Sangat Tinggi\"" }, "geometry": { "type": "Point", "coordinates": [ 104.2842, -5.2542 ] } },
{ "type": "Feature", "properties": { "\"id": "\"11", "nama_lokasi": "Way Ratai Perbukitan", "kabupaten": "Pesawaran", "latitude": -5.5421, "longitude": 105.1245, "kemiringan_lereng": "33 (Curam)", "jenis_tanah_geologi": "Tanah Podsolik Merah Kuning", "penggunaan_lahan": "Alih Fungsi Hutan ke Jagung", "kondisi_hidrologi": "Sering Terjadi Sumbatan Air", "skor_kerawanan_awal\"": "Tinggi\"" }, "geometry": { "type": "Point", "coordinates": [ 105.1245, -5.5421 ] } },
{ "type": "Feature", "properties": { "\"id": "\"12", "nama_lokasi": "Padang Cermin Tebing", "kabupaten": "Pesawaran", "latitude": -5.5842, "longitude": 105.1562, "kemiringan_lereng": "27 (Curam)", "jenis_tanah_geologi": "Tanah Lempung (Clay) Tebal", "penggunaan_lahan": "Hutan Rakyat Terbuka", "kondisi_hidrologi": "Jaringan Aliran Sungai Kecil", "skor_kerawanan_awal\"": "Tinggi\"" }, "geometry": { "type": "Point", "coordinates": [ 105.1562, -5.5842 ] } },
{ "type": "Feature", "properties": { "\"id": "\"13", "nama_lokasi": "Kemiling Perumahan Bukit", "kabupaten": "Bandar Lampung", "latitude": -5.3942, "longitude": 105.2014, "kemiringan_lereng": "21 (Agak Curam)", "jenis_tanah_geologi": "Tanah Podsolik Lempung", "penggunaan_lahan": "Kawasan Pemukiman Baru", "kondisi_hidrologi": "Drainase Beton Sebagian Retak", "skor_kerawanan_awal\"": "Sedang\"" }, "geometry": { "type": "Point", "coordinates": [ 105.2014, -5.3942 ] } },
{ "type": "Feature", "properties": { "\"id": "\"14", "nama_lokasi": "Sukamenanti Lereng", "kabupaten": "Bandar Lampung", "latitude": -5.3912, "longitude": 105.2425, "kemiringan_lereng": "36 (Curam)", "jenis_tanah_geologi": "Tanah Lapuk Atas Batuan Beku", "penggunaan_lahan": "Pemukiman Padat Bawah Bukit", "kondisi_hidrologi": "Aliran Air Hujan Tanpa Selokan", "skor_kerawanan_awal\"": "Tinggi\"" }, "geometry": { "type": "Point", "coordinates": [ 105.2425, -5.3912 ] } },
{ "type": "Feature", "properties": { "\"id": "\"15", "nama_lokasi": "Panjang Bukit Batu", "kabupaten": "Bandar Lampung", "latitude": -5.4521, "longitude": 105.3214, "kemiringan_lereng": "38 (Curam)", "jenis_tanah_geologi": "Batuan Kekar Lapuk (Bedrock)", "penggunaan_lahan": "Area Tambang Batu Rakyat", "kondisi_hidrologi": "Tidak Ada Sistem Drainase", "skor_kerawanan_awal\"": "Tinggi\"" }, "geometry": { "type": "Point", "coordinates": [ 105.3214, -5.4521 ] } },
{ "type": "Feature", "properties": { "\"id": "\"16", "nama_lokasi": "Rajabasa Lereng Gunung", "kabupaten": "Lampung Selatan", "latitude": -5.7821, "longitude": 105.6214, "kemiringan_lereng": "35 (Curam)", "jenis_tanah_geologi": "Tanah Vulkanik Gembur", "penggunaan_lahan": "Kebun Pisang & Kelapa Lereng", "kondisi_hidrologi": "Hulu Sungai Kecil Musiman", "skor_kerawanan_awal\"": "Tinggi\"" }, "geometry": { "type": "Point", "coordinates": [ 105.6214, -5.7821 ] } },
{ "type": "Feature", "properties": { "\"id": "\"17", "nama_lokasi": "Bakauheni Potongan Tol", "kabupaten": "Lampung Selatan", "latitude": -5.8452, "longitude": 105.7421, "kemiringan_lereng": "29 (Curam)", "jenis_tanah_geologi": "Tanah Lempung Berkerikil", "penggunaan_lahan": "Tebing Jalan Tol Terbuka", "kondisi_hidrologi": "Saluran Pembuang Air Lereng", "skor_kerawanan_awal\"": "Sedang\"" }, "geometry": { "type": "Point", "coordinates": [ 105.7421, -5.8452 ] } },
{ "type": "Feature", "properties": { "\"id": "\"18", "nama_lokasi": "Air Naningan Hutan", "kabupaten": "Tanggamus", "latitude": -5.2842, "longitude": 104.6854, "kemiringan_lereng": "34 (Curam)", "jenis_tanah_geologi": "Tanah Latosol Tebal", "penggunaan_lahan": "Perkebunan Kopi & Lada", "kondisi_hidrologi": "Kejenuhan Air Tanah Tinggi", "skor_kerawanan_awal\"": "Tinggi\"" }, "geometry": { "type": "Point", "coordinates": [ 104.6854, -5.2842 ] } },
{ "type": "Feature", "properties": { "\"id": "\"19", "nama_lokasi": "Ulu Belu Kawasan", "kabupaten": "Tanggamus", "latitude": -5.2514, "longitude": 104.5842, "kemiringan_lereng": "31 (Curam)", "jenis_tanah_geologi": "Tanah Vulkanis Sulfat", "penggunaan_lahan": "Kawasan Geothermal & Kebun", "kondisi_hidrologi": "Banyak Manifestasi Air Panas", "skor_kerawanan_awal\"": "Tinggi\"" }, "geometry": { "type": "Point", "coordinates": [ 104.5842, -5.2514 ] } },
{ "type": "Feature", "properties": { "\"id": "\"20", "nama_lokasi": "Sumber Jaya Jalur", "kabupaten": "Lampung Barat", "latitude": -4.9842, "longitude": 104.4854, "kemiringan_lereng": "37 (Curam)", "jenis_tanah_geologi": "Tanah Andosol Sangat Gembur", "penggunaan_lahan": "Sawah Tadah Hujan Lereng", "kondisi_hidrologi": "Sistem Irigasi Tradisional Rembes", "skor_kerawanan_awal\"": "Sangat Tinggi\"" }, "geometry": { "type": "Point", "coordinates": [ 104.4854, -4.9842 ] } }
]
}
